STARLINK-31895          
1 59849U 24097Q   26068.00613128 -.00001596  00000+0 -48490-4 0  9991
2 59849  42.9976 278.1021 0000971 290.4922  69.5825 15.27577588101811
TEVEL2-7                
1 63238U 25052AE  26068.66113295  .00019244  00000+0  69668-3 0  9998
2 63238  97.4054 324.3041 0008105 124.6830 235.5175 15.28414096 54803
