[{"OBJECT_NAME":"STARLINK-31895","OBJECT_ID":"2024-097Q","EPOCH":"2026-03-09T00:08:49.742592","MEAN_MOTION":15.27577588,"ECCENTRICITY":9.717e-5,"INCLINATION":42.9976,"RA_OF_ASC_NODE":278.1021,"ARG_OF_PERICENTER":290.4922,"MEAN_ANOMALY":69.5825,"EPHEMERIS_TYPE":0,"CLASSIFICATION_TYPE":"U","NORAD_CAT_ID":59849,"ELEMENT_SET_NO":999,"REV_AT_EPOCH":10181,"BSTAR":-4.849035e-5,"MEAN_MOTION_DOT":-1.596e-5,"MEAN_MOTION_DDOT":0},{"OBJECT_NAME":"TEVEL2-7","OBJECT_ID":"2025-052AE","EPOCH":"2026-03-09T15:52:01.887744","MEAN_MOTION":15.28414096,"ECCENTRICITY":0.00081048,"INCLINATION":97.4054,"RA_OF_ASC_NODE":324.3041,"ARG_OF_PERICENTER":124.683,"MEAN_ANOMALY":235.5175,"EPHEMERIS_TYPE":0,"CLASSIFICATION_TYPE":"U","NORAD_CAT_ID":63238,"ELEMENT_SET_NO":999,"REV_AT_EPOCH":5480,"BSTAR":0.00069668191,"MEAN_MOTION_DOT":0.00019244,"MEAN_MOTION_DDOT":0}]
